{
  "norad_id": 58533,
  "name": "STARLINK-31036",
  "history": [
    {
      "epoch": "2026-03-28T23:13:15.876768Z",
      "apogee_km": 476.1907022582827,
      "perigee_km": 474.3960629782905,
      "latitude_deg": -4.206968303260655e-05,
      "longitude_deg": 158.764423765628,
      "height_km": 476.24499404225014,
      "semi_major_axis_km": 6853.430382618286,
      "eccentricity": 0.00013093,
      "inclination_deg": 53.1623,
      "raan_deg": 333.461,
      "arg_perigee_deg": 93.4082,
      "mean_anomaly_deg": 266.7068,
      "mean_motion_rev_day": 15.30173772
    },
    {
      "epoch": "2026-03-29T02:21:22.047840Z",
      "apogee_km": 476.08732488431633,
      "perigee_km": 474.4767714080026,
      "latitude_deg": -2.0104294851335892e-05,
      "longitude_deg": 111.00047553932146,
      "height_km": 476.21569256474055,
      "semi_major_axis_km": 6853.419048146159,
      "eccentricity": 0.0001175,
      "inclination_deg": 53.1611,
      "raan_deg": 332.8515,
      "arg_perigee_deg": 92.5143,
      "mean_anomaly_deg": 267.5992,
      "mean_motion_rev_day": 15.30177568
    },
    {
      "epoch": "2026-03-30T01:52:08.648832Z",
      "apogee_km": 475.9815679327676,
      "perigee_km": 474.4916445107756,
      "latitude_deg": 9.246711607792942e-06,
      "longitude_deg": 112.78998482749239,
      "height_km": 476.076417174492,
      "semi_major_axis_km": 6853.373606221771,
      "eccentricity": 0.0001087,
      "inclination_deg": 53.1606,
      "raan_deg": 328.3008,
      "arg_perigee_deg": 85.49,
      "mean_anomaly_deg": 274.6225,
      "mean_motion_rev_day": 15.30192787
    },
    {
      "epoch": "2026-03-30T01:52:08.649696Z",
      "apogee_km": 475.9814308652967,
      "perigee_km": 474.49178157824736,
      "latitude_deg": 1.108629828511333e-05,
      "longitude_deg": 112.78998258817691,
      "height_km": 476.0764279523675,
      "semi_major_axis_km": 6853.373606221771,
      "eccentricity": 0.00010868,
      "inclination_deg": 53.1606,
      "raan_deg": 328.3008,
      "arg_perigee_deg": 85.49,
      "mean_anomaly_deg": 274.6225,
      "mean_motion_rev_day": 15.30192787
    },
    {
      "epoch": "2026-03-30T22:14:50.295264Z",
      "apogee_km": 476.0314236238946,
      "perigee_km": 474.5068148986047,
      "latitude_deg": 4.527147193234899e-05,
      "longitude_deg": 162.33378147050612,
      "height_km": 476.04320246649536,
      "semi_major_axis_km": 6853.40611926125,
      "eccentricity": 0.00011123,
      "inclination_deg": 53.1601,
      "raan_deg": 324.355,
      "arg_perigee_deg": 80.6212,
      "mean_anomaly_deg": 279.4915,
      "mean_motion_rev_day": 15.30181898
    },
    {
      "epoch": "2026-03-31T21:45:38.502432Z",
      "apogee_km": 476.1280795375824,
      "perigee_km": 474.42295050384564,
      "latitude_deg": 5.8987775874844735e-06,
      "longitude_deg": 164.11742964332407,
      "height_km": 476.2919064618905,
      "semi_major_axis_km": 6853.412515020714,
      "eccentricity": 0.0001244,
      "inclination_deg": 53.1607,
      "raan_deg": 319.8052,
      "arg_perigee_deg": 97.9692,
      "mean_anomaly_deg": 262.145,
      "mean_motion_rev_day": 15.30179756
    },
    {
      "epoch": "2026-04-01T21:16:26.288832Z",
      "apogee_km": 476.02056950082897,
      "perigee_km": 474.44429453146495,
      "latitude_deg": -4.0102451409039024e-05,
      "longitude_deg": 165.90133074522143,
      "height_km": 476.1225514854943,
      "semi_major_axis_km": 6853.369432016147,
      "eccentricity": 0.000115,
      "inclination_deg": 53.1607,
      "raan_deg": 315.2539,
      "arg_perigee_deg": 89.404,
      "mean_anomaly_deg": 270.7092,
      "mean_motion_rev_day": 15.30194185
    },
    {
      "epoch": "2026-04-02T20:47:13.830720Z",
      "apogee_km": 476.06307966460554,
      "perigee_km": 474.39757433679733,
      "latitude_deg": 1.7439674691778585e-05,
      "longitude_deg": 167.68593009973637,
      "height_km": 476.1718533700546,
      "semi_major_axis_km": 6853.367327000701,
      "eccentricity": 0.00012151,
      "inclination_deg": 53.1602,
      "raan_deg": 310.7022,
      "arg_perigee_deg": 92.9845,
      "mean_anomaly_deg": 267.1295,
      "mean_motion_rev_day": 15.3019489
    },
    {
      "epoch": "2026-04-03T18:43:58.965312Z",
      "apogee_km": 476.18359020572825,
      "perigee_km": 474.2975406997157,
      "latitude_deg": -1.5506277589023067e-05,
      "longitude_deg": -166.65094009596442,
      "height_km": 476.0915221879907,
      "semi_major_axis_km": 6853.377565452722,
      "eccentricity": 0.0001376,
      "inclination_deg": 53.1605,
      "raan_deg": 306.4547,
      "arg_perigee_deg": 87.1415,
      "mean_anomaly_deg": 272.9743,
      "mean_motion_rev_day": 15.30191461
    },
    {
      "epoch": "2026-04-04T19:48:51.159168Z",
      "apogee_km": 476.287461464206,
      "perigee_km": 474.2972255828481,
      "latitude_deg": -1.9670883730817684e-05,
      "longitude_deg": 171.24743475677826,
      "height_km": 476.37591965707054,
      "semi_major_axis_km": 6853.429343523527,
      "eccentricity": 0.0001452,
      "inclination_deg": 53.1614,
      "raan_deg": 301.6006,
      "arg_perigee_deg": 100.7479,
      "mean_anomaly_deg": 259.3685,
      "mean_motion_rev_day": 15.3017412
    },
    {
      "epoch": "2026-04-05T13:03:26.917056Z",
      "apogee_km": 476.1968677361665,
      "perigee_km": 474.398389420935,
      "latitude_deg": -2.688005027038414e-07,
      "longitude_deg": -91.44609890348826,
      "height_km": 476.226104125734,
      "semi_major_axis_km": 6853.4346285785505,
      "eccentricity": 0.00013121,
      "inclination_deg": 53.1613,
      "raan_deg": 298.2642,
      "arg_perigee_deg": 91.9328,
      "mean_anomaly_deg": 268.1823,
      "mean_motion_rev_day": 15.3017235
    },
    {
      "epoch": "2026-04-05T20:53:42.480384Z",
      "apogee_km": 476.150544957959,
      "perigee_km": 474.39333090627315,
      "latitude_deg": 3.537136271920261e-05,
      "longitude_deg": 149.15279875053585,
      "height_km": 476.19715429292467,
      "semi_major_axis_km": 6853.408937932116,
      "eccentricity": 0.0001282,
      "inclination_deg": 53.1604,
      "raan_deg": 296.7498,
      "arg_perigee_deg": 91.7693,
      "mean_anomaly_deg": 268.3455,
      "mean_motion_rev_day": 15.30180954
    },
    {
      "epoch": "2026-04-05T22:27:45.530496Z",
      "apogee_km": 476.19856610354964,
      "perigee_km": 474.339511181508,
      "latitude_deg": 3.110954914651738e-05,
      "longitude_deg": 125.27161114933003,
      "height_km": 476.244598166533,
      "semi_major_axis_km": 6853.406038642529,
      "eccentricity": 0.00013563,
      "inclination_deg": 53.1602,
      "raan_deg": 296.4457,
      "arg_perigee_deg": 94.7881,
      "mean_anomaly_deg": 265.3275,
      "mean_motion_rev_day": 15.30181925
    },
    {
      "epoch": "2026-04-07T13:39:07.677504Z",
      "apogee_km": 476.2500753699933,
      "perigee_km": 474.4030669375679,
      "latitude_deg": -6.82738456941291e-06,
      "longitude_deg": -111.76395555008976,
      "height_km": 476.2425540903368,
      "semi_major_axis_km": 6853.46357115378,
      "eccentricity": 0.00013475,
      "inclination_deg": 53.1595,
      "raan_deg": 288.8619,
      "arg_perigee_deg": 91.1219,
      "mean_anomaly_deg": 268.9936,
      "mean_motion_rev_day": 15.30162657
    },
    {
      "epoch": "2026-04-07T18:21:16.129728Z",
      "apogee_km": 476.6222084931687,
      "perigee_km": 473.91374284678477,
      "latitude_deg": -4.502215442694392e-05,
      "longitude_deg": 176.59687925470178,
      "height_km": 476.07021589671285,
      "semi_major_axis_km": 6853.404975669977,
      "eccentricity": 0.0001976,
      "inclination_deg": 53.1596,
      "raan_deg": 287.9511,
      "arg_perigee_deg": 85.9859,
      "mean_anomaly_deg": 274.1367,
      "mean_motion_rev_day": 15.30182281
    },
    {
      "epoch": "2026-04-08T11:35:50.888832Z",
      "apogee_km": 476.76548092101893,
      "perigee_km": 473.634465391463,
      "latitude_deg": -4.0328463255533405e-05,
      "longitude_deg": -86.09339341067836,
      "height_km": 475.9638294971306,
      "semi_major_axis_km": 6853.336973156241,
      "eccentricity": 0.00022843,
      "inclination_deg": 53.1597,
      "raan_deg": 284.6138,
      "arg_perigee_deg": 85.1357,
      "mean_anomaly_deg": 274.9904,
      "mean_motion_rev_day": 15.30205056
    },
    {
      "epoch": "2026-04-09T18:56:53.218176Z",
      "apogee_km": 476.38567787673765,
      "perigee_km": 473.92260504049773,
      "latitude_deg": 5.029196251673412e-05,
      "longitude_deg": 156.29193929271617,
      "height_km": 475.9930124876124,
      "semi_major_axis_km": 6853.291141458618,
      "eccentricity": 0.0001797,
      "inclination_deg": 53.1578,
      "raan_deg": 278.5463,
      "arg_perigee_deg": 87.2899,
      "mean_anomaly_deg": 272.8308,
      "mean_motion_rev_day": 15.30220406
    },
    {
      "epoch": "2026-04-10T12:11:28.353120Z",
      "apogee_km": 476.52803156621394,
      "perigee_km": 473.91004955871813,
      "latitude_deg": -2.3310653690001003e-05,
      "longitude_deg": -106.40016164122741,
      "height_km": 476.05349585399694,
      "semi_major_axis_km": 6853.356040562466,
      "eccentricity": 0.000191,
      "inclination_deg": 53.1574,
      "raan_deg": 275.2088,
      "arg_perigee_deg": 87.2658,
      "mean_anomaly_deg": 272.8561,
      "mean_motion_rev_day": 15.3019867
    },
    {
      "epoch": "2026-04-11T17:58:29.089056Z",
      "apogee_km": 476.3973867705563,
      "perigee_km": 474.06312988237096,
      "latitude_deg": 1.932405306559583e-05,
      "longitude_deg": 159.8592349542471,
      "height_km": 476.1631131309491,
      "semi_major_axis_km": 6853.367258326463,
      "eccentricity": 0.0001703,
      "inclination_deg": 53.158,
      "raan_deg": 269.4444,
      "arg_perigee_deg": 91.7482,
      "mean_anomaly_deg": 268.3714,
      "mean_motion_rev_day": 15.30194913
    },
    {
      "epoch": "2026-04-12T17:29:16.948896Z",
      "apogee_km": 476.33306069483024,
      "perigee_km": 474.11956141262544,
      "latitude_deg": 1.9554760873955854e-05,
      "longitude_deg": 161.6427616752263,
      "height_km": 476.1172936185926,
      "semi_major_axis_km": 6853.363311053728,
      "eccentricity": 0.00016149,
      "inclination_deg": 53.1592,
      "raan_deg": 264.893,
      "arg_perigee_deg": 89.6624,
      "mean_anomaly_deg": 270.4562,
      "mean_motion_rev_day": 15.30196235
    },
    {
      "epoch": "2026-04-14T14:56:49.771392Z",
      "apogee_km": 476.10803283402765,
      "perigee_km": 474.367275671847,
      "latitude_deg": -5.065989623028728e-05,
      "longitude_deg": -170.9097892596281,
      "height_km": 476.0574148995808,
      "semi_major_axis_km": 6853.374654252937,
      "eccentricity": 0.000127,
      "inclination_deg": 53.1593,
      "raan_deg": 256.0942,
      "arg_perigee_deg": 84.8418,
      "mean_anomaly_deg": 275.2727,
      "mean_motion_rev_day": 15.30192436
    },
    {
      "epoch": "2026-04-15T19:09:47.173824Z",
      "apogee_km": 476.12450480424104,
      "perigee_km": 474.3398874655668,
      "latitude_deg": -3.662691884136649e-05,
      "longitude_deg": 119.23155887395437,
      "height_km": 476.0613481483716,
      "semi_major_axis_km": 6853.369196134903,
      "eccentricity": 0.0001302,
      "inclination_deg": 53.1602,
      "raan_deg": 250.6335,
      "arg_perigee_deg": 85.5708,
      "mean_anomaly_deg": 274.5441,
      "mean_motion_rev_day": 15.30194264
    }
  ]
}